CCSDS_OMM_VERS = 2.0
CREATION_DATE  = 
ORIGINATOR     = 

OBJECT_NAME    = SL-14 R/B
OBJECT_ID      = 1986-046B
CENTER_NAME    = EARTH
REF_FRAME      = TEME
TIME_SYSTEM    = UTC
MEAN_ELEMENT_THEORY = SGP/SGP4

EPOCH          = 2025-11-25T16:08:09.417408
MEAN_MOTION    = 14.85459111
ECCENTRICITY   = .0022358
INCLINATION    = 82.4817
RA_OF_ASC_NODE = 178.4322
ARG_OF_PERICENTER = 208.6137
MEAN_ANOMALY   = 151.3854

EPHEMERIS_TYPE = 0
CLASSIFICATION_TYPE = U
NORAD_CAT_ID   = 16792
ELEMENT_SET_NO = 999
REV_AT_EPOCH   = 11096
BSTAR          = .62087E-4
MEAN_MOTION_DOT = .562E-5
MEAN_MOTION_DDOT = 0

CCSDS_OMM_VERS = 2.0
CREATION_DATE  = 
ORIGINATOR     = 

OBJECT_NAME    = SL-14 R/B
OBJECT_ID      = 1986-055B
CENTER_NAME    = EARTH
REF_FRAME      = TEME
TIME_SYSTEM    = UTC
MEAN_ELEMENT_THEORY = SGP/SGP4

EPOCH          = 2025-11-25T19:22:07.538016
MEAN_MOTION    = 14.85505708
ECCENTRICITY   = .0017977
INCLINATION    = 82.5218
RA_OF_ASC_NODE = 224.2813
ARG_OF_PERICENTER = 319.9149
MEAN_ANOMALY   = 107.6302

EPHEMERIS_TYPE = 0
CLASSIFICATION_TYPE = U
NORAD_CAT_ID   = 16882
ELEMENT_SET_NO = 999
REV_AT_EPOCH   = 10394
BSTAR          = .7427E-4
MEAN_MOTION_DOT = .667E-5
MEAN_MOTION_DDOT = 0

CCSDS_OMM_VERS = 2.0
CREATION_DATE  = 
ORIGINATOR     = 

OBJECT_NAME    = AJISAI (EGS)
OBJECT_ID      = 1986-061A
CENTER_NAME    = EARTH
REF_FRAME      = TEME
TIME_SYSTEM    = UTC
MEAN_ELEMENT_THEORY = SGP/SGP4

EPOCH          = 2025-11-25T19:39:13.099104
MEAN_MOTION    = 12.44514078
ECCENTRICITY   = .0011239
INCLINATION    = 50.0108
RA_OF_ASC_NODE = 52.7465
ARG_OF_PERICENTER = 23.4112
MEAN_ANOMALY   = 138.4735

EPHEMERIS_TYPE = 0
CLASSIFICATION_TYPE = U
NORAD_CAT_ID   = 16908
ELEMENT_SET_NO = 999
REV_AT_EPOCH   = 45506
BSTAR          = -.15196E-4
MEAN_MOTION_DOT = -.1E-5
MEAN_MOTION_DDOT = 0

CCSDS_OMM_VERS = 2.0
CREATION_DATE  = 
ORIGINATOR     = 

OBJECT_NAME    = COSMOS 1812
OBJECT_ID      = 1987-003A
CENTER_NAME    = EARTH
REF_FRAME      = TEME
TIME_SYSTEM    = UTC
MEAN_ELEMENT_THEORY = SGP/SGP4

EPOCH          = 2025-11-25T10:22:07.351392
MEAN_MOTION    = 15.71701188
ECCENTRICITY   = .000662
INCLINATION    = 82.4880
RA_OF_ASC_NODE = 310.6968
ARG_OF_PERICENTER = 110.6512
MEAN_ANOMALY   = 249.5461

EPHEMERIS_TYPE = 0
CLASSIFICATION_TYPE = U
NORAD_CAT_ID   = 17295
ELEMENT_SET_NO = 999
REV_AT_EPOCH   = 12793
BSTAR          = .70825E-3
MEAN_MOTION_DOT = .92146E-3
MEAN_MOTION_DDOT = 0

CCSDS_OMM_VERS = 2.0
CREATION_DATE  = 
ORIGINATOR     = 

OBJECT_NAME    = SL-14 R/B
OBJECT_ID      = 1987-024B
CENTER_NAME    = EARTH
REF_FRAME      = TEME
TIME_SYSTEM    = UTC
MEAN_ELEMENT_THEORY = SGP/SGP4

EPOCH          = 2025-11-25T16:13:37.270848
MEAN_MOTION    = 14.85999729
ECCENTRICITY   = .0016848
INCLINATION    = 82.5287
RA_OF_ASC_NODE = 190.4830
ARG_OF_PERICENTER = 243.3591
MEAN_ANOMALY   = 116.5900

EPHEMERIS_TYPE = 0
CLASSIFICATION_TYPE = U
NORAD_CAT_ID   = 17567
ELEMENT_SET_NO = 999
REV_AT_EPOCH   = 7268
BSTAR          = .61768E-4
MEAN_MOTION_DOT = .565E-5
MEAN_MOTION_DDOT = 0

CCSDS_OMM_VERS = 2.0
CREATION_DATE  = 
ORIGINATOR     = 

OBJECT_NAME    = COSMOS 1833
OBJECT_ID      = 1987-027A
CENTER_NAME    = EARTH
REF_FRAME      = TEME
TIME_SYSTEM    = UTC
MEAN_ELEMENT_THEORY = SGP/SGP4

EPOCH          = 2025-11-25T17:28:09.246720
MEAN_MOTION    = 14.13017953
ECCENTRICITY   = .0021812
INCLINATION    = 70.9127
RA_OF_ASC_NODE = 184.5392
ARG_OF_PERICENTER = 355.7589
MEAN_ANOMALY   = 4.3344

EPHEMERIS_TYPE = 0
CLASSIFICATION_TYPE = U
NORAD_CAT_ID   = 17589
ELEMENT_SET_NO = 999
REV_AT_EPOCH   = 99562
BSTAR          = -.13041E-4
MEAN_MOTION_DOT = -.73E-6
MEAN_MOTION_DDOT = 0

CCSDS_OMM_VERS = 2.0
CREATION_DATE  = 
ORIGINATOR     = 

OBJECT_NAME    = SL-16 R/B
OBJECT_ID      = 1987-027B
CENTER_NAME    = EARTH
REF_FRAME      = TEME
TIME_SYSTEM    = UTC
MEAN_ELEMENT_THEORY = SGP/SGP4

EPOCH          = 2025-11-25T18:59:39.333408
MEAN_MOTION    = 14.17148671
ECCENTRICITY   = .0007282
INCLINATION    = 71.0004
RA_OF_ASC_NODE = 135.4306
ARG_OF_PERICENTER = 277.0770
MEAN_ANOMALY   = 82.9525

EPHEMERIS_TYPE = 0
CLASSIFICATION_TYPE = U
NORAD_CAT_ID   = 17590
ELEMENT_SET_NO = 999
REV_AT_EPOCH   = 62
BSTAR          = .15313E-3
MEAN_MOTION_DOT = .261E-5
MEAN_MOTION_DDOT = 0

CCSDS_OMM_VERS = 2.0
CREATION_DATE  = 
ORIGINATOR     = 

OBJECT_NAME    = SL-14 R/B
OBJECT_ID      = 1987-038B
CENTER_NAME    = EARTH
REF_FRAME      = TEME
TIME_SYSTEM    = UTC
MEAN_ELEMENT_THEORY = SGP/SGP4

EPOCH          = 2025-11-25T16:26:29.380992
MEAN_MOTION    = 14.85237804
ECCENTRICITY   = .0020217
INCLINATION    = 82.5031
RA_OF_ASC_NODE = 34.7625
ARG_OF_PERICENTER = 144.8844
MEAN_ANOMALY   = 215.3710

EPHEMERIS_TYPE = 0
CLASSIFICATION_TYPE = U
NORAD_CAT_ID   = 17912
ELEMENT_SET_NO = 999
REV_AT_EPOCH   = 6379
BSTAR          = .67985E-4
MEAN_MOTION_DOT = .609E-5
MEAN_MOTION_DDOT = 0

CCSDS_OMM_VERS = 2.0
CREATION_DATE  = 
ORIGINATOR     = 

OBJECT_NAME    = COSMOS 1844
OBJECT_ID      = 1987-041A
CENTER_NAME    = EARTH
REF_FRAME      = TEME
TIME_SYSTEM    = UTC
MEAN_ELEMENT_THEORY = SGP/SGP4

EPOCH          = 2025-11-25T12:27:59.908896
MEAN_MOTION    = 14.14528321
ECCENTRICITY   = .0030824
INCLINATION    = 70.8995
RA_OF_ASC_NODE = 253.8897
ARG_OF_PERICENTER = 183.8047
MEAN_ANOMALY   = 176.2846

EPHEMERIS_TYPE = 0
CLASSIFICATION_TYPE = U
NORAD_CAT_ID   = 17973
ELEMENT_SET_NO = 999
REV_AT_EPOCH   = 98885
BSTAR          = .3002E-4
MEAN_MOTION_DOT = .9E-7
MEAN_MOTION_DDOT = 0

CCSDS_OMM_VERS = 2.0
CREATION_DATE  = 
ORIGINATOR     = 

OBJECT_NAME    = SL-14 R/B
OBJECT_ID      = 1987-055B
CENTER_NAME    = EARTH
REF_FRAME      = TEME
TIME_SYSTEM    = UTC
MEAN_ELEMENT_THEORY = SGP/SGP4

EPOCH          = 2025-11-25T19:33:07.353216
MEAN_MOTION    = 14.85494369
ECCENTRICITY   = .0020649
INCLINATION    = 82.4992
RA_OF_ASC_NODE = 86.9375
ARG_OF_PERICENTER = 1.3215
MEAN_ANOMALY   = 358.8052

EPHEMERIS_TYPE = 0
CLASSIFICATION_TYPE = U
NORAD_CAT_ID   = 18153
ELEMENT_SET_NO = 999
REV_AT_EPOCH   = 5451
BSTAR          = .75361E-4
MEAN_MOTION_DOT = .677E-5
MEAN_MOTION_DDOT = 0

CCSDS_OMM_VERS = 2.0
CREATION_DATE  = 
ORIGINATOR     = 

OBJECT_NAME    = COSMOS 1867
OBJECT_ID      = 1987-060A
CENTER_NAME    = EARTH
REF_FRAME      = TEME
TIME_SYSTEM    = UTC
MEAN_ELEMENT_THEORY = SGP/SGP4

EPOCH          = 2025-11-25T20:03:39.263040
MEAN_MOTION    = 14.31482255
ECCENTRICITY   = .001362
INCLINATION    = 65.0101
RA_OF_ASC_NODE = 237.5388
ARG_OF_PERICENTER = 269.3831
MEAN_ANOMALY   = 90.5693

EPHEMERIS_TYPE = 0
CLASSIFICATION_TYPE = U
NORAD_CAT_ID   = 18187
ELEMENT_SET_NO = 999
REV_AT_EPOCH   = 507
BSTAR          = .35072E-4
MEAN_MOTION_DOT = -.7E-7
MEAN_MOTION_DDOT = 0

