SL-14 R/B               
1 16792U 86046B   25329.67233122  .00000562  00000+0  62087-4 0  9995
2 16792  82.4817 178.4322 0022358 208.6137 151.3854 14.85459111110964
SL-14 R/B               
1 16882U 86055B   25329.80703169  .00000667  00000+0  74270-4 0  9996
2 16882  82.5218 224.2813 0017977 319.9149 107.6302 14.85505708103941
AJISAI (EGS)            
1 16908U 86061A   25329.81890161 -.00000100  00000+0 -15196-4 0  9998
2 16908  50.0108  52.7465 0011239  23.4112 138.4735 12.44514078455065
COSMOS 1812             
1 17295U 87003A   25329.43202953  .00092146  00000+0  70825-3 0  9997
2 17295  82.4880 310.6968 0006620 110.6512 249.5461 15.71701188127931
SL-14 R/B               
1 17567U 87024B   25329.67612582  .00000565  00000+0  61768-4 0  9992
2 17567  82.5287 190.4830 0016848 243.3591 116.5900 14.85999729 72687
COSMOS 1833             
1 17589U 87027A   25329.72788480 -.00000073  00000+0 -13041-4 0  9993
2 17589  70.9127 184.5392 0021812 355.7589   4.3344 14.13017953995629
SL-16 R/B               
1 17590U 87027B   25329.79142747  .00000261  00000+0  15313-3 0  9992
2 17590  71.0004 135.4306 0007282 277.0770  82.9525 14.17148671   626
SL-14 R/B               
1 17912U 87038B   25329.68506228  .00000609  00000+0  67985-4 0  9997
2 17912  82.5031  34.7625 0020217 144.8844 215.3710 14.85237804 63799
COSMOS 1844             
1 17973U 87041A   25329.51944339  .00000009  00000+0  30020-4 0  9993
2 17973  70.8995 253.8897 0030824 183.8047 176.2846 14.14528321988850
SL-14 R/B               
1 18153U 87055B   25329.81466844  .00000677  00000+0  75361-4 0  9990
2 18153  82.4992  86.9375 0020649   1.3215 358.8052 14.85494369 54514
COSMOS 1867             
1 18187U 87060A   25329.83587110 -.00000007  00000+0  35072-4 0  9998
2 18187  65.0101 237.5388 0013620 269.3831  90.5693 14.31482255  5079
